GECAM-B                 
1 47235U 20094B   26058.19405615  .00003224  00000+0  23073-3 0  9996
2 47235  28.9982  10.8844 0010635 257.2071 102.7339 15.01652363285175
STARLINK-35009          
1 65449U 25194R   26068.56387079  .00004086  00000+0  28714-3 0  9998
2 65449  97.6013 284.3456 0001481  69.5792 290.5594 15.05657862 29639
